{
  "type": "FeatureCollection",
  "features": [
    {
      "type": "Feature",
      "properties": {
        "norad_id": 33765,
        "name": "COSMOS 2251 DEB",
        "group": "cosmos-2251-debris",
        "lat": 46.809818768267924,
        "lon": -14.257731909597677,
        "alt_km": 571.2569179581014,
        "timestamp": "2025-12-07T16:44:04.305202+00:00",
        "meta_object_name": "COSMOS 2251 DEB",
        "meta_object_id": "1993-036N",
        "meta_epoch": "2025-12-06T23:11:38.397696",
        "meta_mean_motion": 15.09473587,
        "meta_eccentricity": 0.00667932,
        "meta_inclination": 74.0093,
        "meta_ra_of_asc_node": 185.0387,
        "meta_arg_of_pericenter": 278.1482,
        "meta_mean_anomaly": 202.9508,
        "meta_ephemeris_type": 0,
        "meta_classification_type": "U",
        "meta_norad_cat_id": 33765,
        "meta_element_set_no": 999,
        "meta_rev_at_epoch": 89531,
        "meta_bstar": 0.0027673124,
        "meta_mean_motion_dot": 0.00046974,
        "meta_mean_motion_ddot": 0,
        "tle_line1": "1 33765U 93036N   25340.96641664  .00046974  00000+0  27673-2 0  9997",
        "tle_line2": "2 33765  74.0093 185.0387 0066793 278.1482 202.9508 15.09473587895315"
      },
      "geometry": {
        "type": "Point",
        "coordinates": [
          -14.257731909597677,
          46.809818768267924
        ]
      }
    },
    {
      "type": "Feature",
      "properties": {
        "norad_id": 33766,
        "name": "COSMOS 2251 DEB",
        "group": "cosmos-2251-debris",
        "lat": -71.40075556140046,
        "lon": 21.51422329079468,
        "alt_km": 781.0972433993275,
        "timestamp": "2025-12-07T16:44:04.305213+00:00",
        "meta_object_name": "COSMOS 2251 DEB",
        "meta_object_id": "1993-036P",
        "meta_epoch": "2025-12-06T21:06:59.206752",
        "meta_mean_motion": 14.34908372,
        "meta_eccentricity": 0.00638661,
        "meta_inclination": 74.1851,
        "meta_ra_of_asc_node": 145.6198,
        "meta_arg_of_pericenter": 350.6391,
        "meta_mean_anomaly": 9.3565,
        "meta_ephemeris_type": 0,
        "meta_classification_type": "U",
        "meta_norad_cat_id": 33766,
        "meta_element_set_no": 999,
        "meta_rev_at_epoch": 87661,
        "meta_bstar": 0.00083973431,
        "meta_mean_motion_dot": 2.418e-05,
        "meta_mean_motion_ddot": 0,
        "tle_line1": "1 33766U 93036P   25340.87985193  .00002418  00000+0  83973-3 0  9997",
        "tle_line2": "2 33766  74.1851 145.6198 0063866 350.6391   9.3565 14.34908372876610"
      },
      "geometry": {
        "type": "Point",
        "coordinates": [
          21.51422329079468,
          -71.40075556140046
        ]
      }
    },
    {
      "type": "Feature",
      "properties": {
        "norad_id": 33768,
        "name": "COSMOS 2251 DEB",
        "group": "cosmos-2251-debris",
        "lat": 38.82114455526289,
        "lon": 34.71895658697787,
        "alt_km": 1132.7980946657362,
        "timestamp": "2025-12-07T16:44:04.305225+00:00",
        "meta_object_name": "COSMOS 2251 DEB",
        "meta_object_id": "1993-036R",
        "meta_epoch": "2025-12-06T22:27:17.551584",
        "meta_mean_motion": 13.58447318,
        "meta_eccentricity": 0.0366023,
        "meta_inclination": 74.0687,
        "meta_ra_of_asc_node": 229.2341,
        "meta_arg_of_pericenter": 28.2496,
        "meta_mean_anomaly": 343.668,
        "meta_ephemeris_type": 0,
        "meta_classification_type": "U",
        "meta_norad_cat_id": 33768,
        "meta_element_set_no": 999,
        "meta_rev_at_epoch": 83217,
        "meta_bstar": 0.00059387265,
        "meta_mean_motion_dot": 6.5e-06,
        "meta_mean_motion_ddot": 0,
        "tle_line1": "1 33768U 93036R   25340.93561981  .00000650  00000+0  59387-3 0  9999",
        "tle_line2": "2 33768  74.0687 229.2341 0366023  28.2496 343.6680 13.58447318832170"
      },
      "geometry": {
        "type": "Point",
        "coordinates": [
          34.71895658697787,
          38.82114455526289
        ]
      }
    },
    {
      "type": "Feature",
      "properties": {
        "norad_id": 33779,
        "name": "COSMOS 2251 DEB",
        "group": "cosmos-2251-debris",
        "lat": -38.21777841147289,
        "lon": 167.4788722507211,
        "alt_km": 669.4342038707491,
        "timestamp": "2025-12-07T16:44:04.305236+00:00",
        "meta_object_name": "COSMOS 2251 DEB",
        "meta_object_id": "1993-036U",
        "meta_epoch": "2025-12-06T23:16:41.056896",
        "meta_mean_motion": 14.70268912,
        "meta_eccentricity": 0.00175303,
        "meta_inclination": 74.0439,
        "meta_ra_of_asc_node": 181.9082,
        "meta_arg_of_pericenter": 216.5091,
        "meta_mean_anomaly": 215.0613,
        "meta_ephemeris_type": 0,
        "meta_classification_type": "U",
        "meta_norad_cat_id": 33779,
        "meta_element_set_no": 999,
        "meta_rev_at_epoch": 88443,
        "meta_bstar": 0.0021953916,
        "meta_mean_motion_dot": 0.00013273,
        "meta_mean_motion_ddot": 0,
        "tle_line1": "1 33779U 93036U   25340.96991964  .00013273  00000+0  21954-2 0  9995",
        "tle_line2": "2 33779  74.0439 181.9082 0017530 216.5091 215.0613 14.70268912884432"
      },
      "geometry": {
        "type": "Point",
        "coordinates": [
          167.4788722507211,
          -38.21777841147289
        ]
      }
    },
    {
      "type": "Feature",
      "properties": {
        "norad_id": 33782,
        "name": "COSMOS 2251 DEB",
        "group": "cosmos-2251-debris",
        "lat": -72.62671456056098,
        "lon": 173.08527445310253,
        "alt_km": 763.8584291933557,
        "timestamp": "2025-12-07T16:44:04.305246+00:00",
        "meta_object_name": "COSMOS 2251 DEB",
        "meta_object_id": "1993-036X",
        "meta_epoch": "2025-12-06T21:27:51.338016",
        "meta_mean_motion": 14.40421814,
        "meta_eccentricity": 0.00205291,
        "meta_inclination": 74.0339,
        "meta_ra_of_asc_node": 288.3566,
        "meta_arg_of_pericenter": 354.1408,
        "meta_mean_anomaly": 67.2396,
        "meta_ephemeris_type": 0,
        "meta_classification_type": "U",
        "meta_norad_cat_id": 33782,
        "meta_element_set_no": 999,
        "meta_rev_at_epoch": 88042,
        "meta_bstar": 0.00081257636,
        "meta_mean_motion_dot": 2.562e-05,
        "meta_mean_motion_ddot": 0,
        "tle_line1": "1 33782U 93036X   25340.89434419  .00002562  00000+0  81258-3 0  9991",
        "tle_line2": "2 33782  74.0339 288.3566 0020529 354.1408  67.2396 14.40421814880426"
      },
      "geometry": {
        "type": "Point",
        "coordinates": [
          173.08527445310253,
          -72.62671456056098
        ]
      }
    },
    {
      "type": "Feature",
      "properties": {
        "norad_id": 33785,
        "name": "COSMOS 2251 DEB",
        "group": "cosmos-2251-debris",
        "lat": -62.98639338230826,
        "lon": 35.22258911486578,
        "alt_km": 663.7120659598886,
        "timestamp": "2025-12-07T16:44:04.305257+00:00",
        "meta_object_name": "COSMOS 2251 DEB",
        "meta_object_id": "1993-036AA",
        "meta_epoch": "2025-12-06T15:26:28.709376",
        "meta_mean_motion": 14.70269632,
        "meta_eccentricity": 0.00217551,
        "meta_inclination": 73.8681,
        "meta_ra_of_asc_node": 71.8774,
        "meta_arg_of_pericenter": 12.4173,
        "meta_mean_anomaly": 103.8552,
        "meta_ephemeris_type": 0,
        "meta_classification_type": "U",
        "meta_norad_cat_id": 33785,
        "meta_element_set_no": 999,
        "meta_rev_at_epoch": 88417,
        "meta_bstar": 0.0034755326,
        "meta_mean_motion_dot": 0.00021083,
        "meta_mean_motion_ddot": 0,
        "tle_line1": "1 33785U 93036AA  25340.64338784  .00021083  00000+0  34755-2 0  9993",
        "tle_line2": "2 33785  73.8681  71.8774 0021755  12.4173 103.8552 14.70269632884175"
      },
      "geometry": {
        "type": "Point",
        "coordinates": [
          35.22258911486578,
          -62.98639338230826
        ]
      }
    },
    {
      "type": "Feature",
      "properties": {
        "norad_id": 33789,
        "name": "COSMOS 2251 DEB",
        "group": "cosmos-2251-debris",
        "lat": 30.617968507756952,
        "lon": -93.77090282925231,
        "alt_km": 852.5198270891879,
        "timestamp": "2025-12-07T16:44:04.305267+00:00",
        "meta_object_name": "COSMOS 2251 DEB",
        "meta_object_id": "1993-036AE",
        "meta_epoch": "2025-12-06T19:50:21.175008",
        "meta_mean_motion": 13.88774043,
        "meta_eccentricity": 0.02404029,
        "meta_inclination": 74.064,
        "meta_ra_of_asc_node": 97.4411,
        "meta_arg_of_pericenter": 214.3673,
        "meta_mean_anomaly": 264.8731,
        "meta_ephemeris_type": 0,
        "meta_classification_type": "U",
        "meta_norad_cat_id": 33789,
        "meta_element_set_no": 999,
        "meta_rev_at_epoch": 85013,
        "meta_bstar": 0.001354671,
        "meta_mean_motion_dot": 2.036e-05,
        "meta_mean_motion_ddot": 0,
        "tle_line1": "1 33789U 93036AE  25340.82663397  .00002036  00000+0  13547-2 0  9991",
        "tle_line2": "2 33789  74.0640  97.4411 0240402 214.3673 264.8731 13.88774043850130"
      },
      "geometry": {
        "type": "Point",
        "coordinates": [
          -93.77090282925231,
          30.617968507756952
        ]
      }
    }
  ]
}